{
  "links" : {
    "next" : "https://api.nasa.gov/neo/rest/v1/feed?start_date=2000-02-23&end_date=2000-02-23&detailed=true&api_key=t0TVs3DtDT2H8Oy2Zy8m2eVrNsAVKAexjcZXUckd",
    "prev" : "https://api.nasa.gov/neo/rest/v1/feed?start_date=2000-02-21&end_date=2000-02-21&detailed=true&api_key=t0TVs3DtDT2H8Oy2Zy8m2eVrNsAVKAexjcZXUckd",
    "self" : "https://api.nasa.gov/neo/rest/v1/feed?start_date=2000-02-22&end_date=2000-02-22&detailed=true&api_key=t0TVs3DtDT2H8Oy2Zy8m2eVrNsAVKAexjcZXUckd"
  },
  "element_count" : 4,
  "near_earth_objects" : {
    "2000-02-22" : [ {
      "links" : {
        "self" : "https://api.nasa.gov/neo/rest/v1/neo/3261402?api_key=t0TVs3DtDT2H8Oy2Zy8m2eVrNsAVKAexjcZXUckd"
      },
      "neo_reference_id" : "3261402",
      "name" : "(2004 VA1)",
      "nasa_jpl_url" : "http://ssd.jpl.nasa.gov/sbdb.cgi?sstr=3261402",
      "absolute_magnitude_h" : 20.5,
      "estimated_diameter" : {
        "kilometers" : {
          "estimated_diameter_min" : 0.2111324448,
          "estimated_diameter_max" : 0.4721064988
        },
        "meters" : {
          "estimated_diameter_min" : 211.1324447897,
          "estimated_diameter_max" : 472.1064988055
        },
        "miles" : {
          "estimated_diameter_min" : 0.1311915784,
          "estimated_diameter_max" : 0.2933532873
        },
        "feet" : {
          "estimated_diameter_min" : 692.6917701639,
          "estimated_diameter_max" : 1548.9058855411
        }
      },
      "is_potentially_hazardous_asteroid" : false,
      "close_approach_data" : [ {
        "close_approach_date" : "2000-02-22",
        "epoch_date_close_approach" : 951206400000,
        "relative_velocity" : {
          "kilometers_per_second" : "20.4002861716",
          "kilometers_per_hour" : "73441.0302177222",
          "miles_per_hour" : "45633.4001372286"
        },
        "miss_distance" : {
          "astronomical" : "0.2819353913",
          "lunar" : "109.6728668213",
          "kilometers" : "42176936",
          "miles" : "26207532"
        },
        "orbiting_body" : "Earth"
      } ],
      "orbital_data" : {
        "orbit_id" : "21",
        "orbit_determination_date" : "2016-12-25 06:18:19",
        "orbit_uncertainty" : "1",
        "minimum_orbit_intersection" : ".172687",
        "jupiter_tisserand_invariant" : "5.695",
        "epoch_osculation" : "2457800.5",
        "eccentricity" : ".5122844321381634",
        "semi_major_axis" : "1.051392600702162",
        "inclination" : "14.90243924908494",
        "ascending_node_longitude" : "250.7559157913421",
        "orbital_period" : "393.7728793580704",
        "perihelion_distance" : ".5127805392971879",
        "perihelion_argument" : "20.86271149259229",
        "aphelion_distance" : "1.590004662107135",
        "perihelion_time" : "2457952.294742862065",
        "mean_anomaly" : "221.2242988409269",
        "mean_motion" : ".9142325916067986",
        "equinox" : "J2000"
      }
    }, {
      "links" : {
        "self" : "https://api.nasa.gov/neo/rest/v1/neo/3740663?api_key=t0TVs3DtDT2H8Oy2Zy8m2eVrNsAVKAexjcZXUckd"
      },
      "neo_reference_id" : "3740663",
      "name" : "(2016 AO193)",
      "nasa_jpl_url" : "http://ssd.jpl.nasa.gov/sbdb.cgi?sstr=3740663",
      "absolute_magnitude_h" : 20.7,
      "estimated_diameter" : {
        "kilometers" : {
          "estimated_diameter_min" : 0.1925550782,
          "estimated_diameter_max" : 0.4305662442
        },
        "meters" : {
          "estimated_diameter_min" : 192.5550781879,
          "estimated_diameter_max" : 430.566244241
        },
        "miles" : {
          "estimated_diameter_min" : 0.1196481415,
          "estimated_diameter_max" : 0.2675413778
        },
        "feet" : {
          "estimated_diameter_min" : 631.7424027221,
          "estimated_diameter_max" : 1412.6189567557
        }
      },
      "is_potentially_hazardous_asteroid" : false,
      "close_approach_data" : [ {
        "close_approach_date" : "2000-02-22",
        "epoch_date_close_approach" : 951206400000,
        "relative_velocity" : {
          "kilometers_per_second" : "20.48763731",
          "kilometers_per_hour" : "73755.4943159381",
          "miles_per_hour" : "45828.7958987005"
        },
        "miss_distance" : {
          "astronomical" : "0.4368175622",
          "lunar" : "169.9220275879",
          "kilometers" : "65346976",
          "miles" : "40604728"
        },
        "orbiting_body" : "Earth"
      } ],
      "orbital_data" : {
        "orbit_id" : "14",
        "orbit_determination_date" : "2017-04-06 08:29:03",
        "orbit_uncertainty" : "4",
        "minimum_orbit_intersection" : ".170887",
        "jupiter_tisserand_invariant" : "3.930",
        "epoch_osculation" : "2458000.5",
        "eccentricity" : ".4455039673834926",
        "semi_major_axis" : "1.744367637657158",
        "inclination" : "24.06566747974294",
        "ascending_node_longitude" : "301.9237514011382",
        "orbital_period" : "841.5025921859109",
        "perihelion_distance" : ".9672449345055236",
        "perihelion_argument" : "284.9525132538295",
        "aphelion_distance" : "2.521490340808793",
        "perihelion_time" : "2458377.120693727212",
        "mean_anomaly" : "198.8793439250126",
        "mean_motion" : ".4278061688019925",
        "equinox" : "J2000"
      }
    }, {
      "links" : {
        "self" : "https://api.nasa.gov/neo/rest/v1/neo/2481025?api_key=t0TVs3DtDT2H8Oy2Zy8m2eVrNsAVKAexjcZXUckd"
      },
      "neo_reference_id" : "2481025",
      "name" : "481025 (2004 VA1)",
      "nasa_jpl_url" : "http://ssd.jpl.nasa.gov/sbdb.cgi?sstr=2481025",
      "absolute_magnitude_h" : 20.6,
      "estimated_diameter" : {
        "kilometers" : {
          "estimated_diameter_min" : 0.2016299194,
          "estimated_diameter_max" : 0.4508582062
        },
        "meters" : {
          "estimated_diameter_min" : 201.6299194428,
          "estimated_diameter_max" : 450.8582061718
        },
        "miles" : {
          "estimated_diameter_min" : 0.1252869847,
          "estimated_diameter_max" : 0.2801502144
        },
        "feet" : {
          "estimated_diameter_min" : 661.5155049046,
          "estimated_diameter_max" : 1479.1936371367
        }
      },
      "is_potentially_hazardous_asteroid" : false,
      "close_approach_data" : [ {
        "close_approach_date" : "2000-02-22",
        "epoch_date_close_approach" : 951206400000,
        "relative_velocity" : {
          "kilometers_per_second" : "20.4002316288",
          "kilometers_per_hour" : "73440.8338638528",
          "miles_per_hour" : "45633.2781305701"
        },
        "miss_distance" : {
          "astronomical" : "0.2819344798",
          "lunar" : "109.6725082397",
          "kilometers" : "42176796",
          "miles" : "26207446"
        },
        "orbiting_body" : "Earth"
      } ],
      "orbital_data" : {
        "orbit_id" : "23",
        "orbit_determination_date" : "2017-04-06 09:18:50",
        "orbit_uncertainty" : "1",
        "minimum_orbit_intersection" : ".172611",
        "jupiter_tisserand_invariant" : "5.695",
        "epoch_osculation" : "2458000.5",
        "eccentricity" : ".5122883739162025",
        "semi_major_axis" : "1.051392448212341",
        "inclination" : "14.90253720592457",
        "ascending_node_longitude" : "250.7546319272581",
        "orbital_period" : "393.7727936911843",
        "perihelion_distance" : ".5127763205698658",
        "perihelion_argument" : "20.86173869139343",
        "aphelion_distance" : "1.590008575854817",
        "perihelion_time" : "2457952.291592100274",
        "mean_anomaly" : "44.07370727981781",
        "mean_motion" : ".9142327905018481",
        "equinox" : "J2000"
      }
    }, {
      "links" : {
        "self" : "https://api.nasa.gov/neo/rest/v1/neo/3769811?api_key=t0TVs3DtDT2H8Oy2Zy8m2eVrNsAVKAexjcZXUckd"
      },
      "neo_reference_id" : "3769811",
      "name" : "(2017 DP34)",
      "nasa_jpl_url" : "http://ssd.jpl.nasa.gov/sbdb.cgi?sstr=3769811",
      "absolute_magnitude_h" : 24.2,
      "estimated_diameter" : {
        "kilometers" : {
          "estimated_diameter_min" : 0.0384197891,
          "estimated_diameter_max" : 0.0859092601
        },
        "meters" : {
          "estimated_diameter_min" : 38.4197891064,
          "estimated_diameter_max" : 85.9092601232
        },
        "miles" : {
          "estimated_diameter_min" : 0.0238729428,
          "estimated_diameter_max" : 0.0533815229
        },
        "feet" : {
          "estimated_diameter_min" : 126.0491808919,
          "estimated_diameter_max" : 281.8545369825
        }
      },
      "is_potentially_hazardous_asteroid" : false,
      "close_approach_data" : [ {
        "close_approach_date" : "2000-02-22",
        "epoch_date_close_approach" : 951206400000,
        "relative_velocity" : {
          "kilometers_per_second" : "8.2641033841",
          "kilometers_per_hour" : "29750.7721828968",
          "miles_per_hour" : "18485.9728599783"
        },
        "miss_distance" : {
          "astronomical" : "0.0653284581",
          "lunar" : "25.4127693176",
          "kilometers" : "9772998",
          "miles" : "6072659.5"
        },
        "orbiting_body" : "Earth"
      } ],
      "orbital_data" : {
        "orbit_id" : "7",
        "orbit_determination_date" : "2017-04-06 08:20:04",
        "orbit_uncertainty" : "7",
        "minimum_orbit_intersection" : ".0267939",
        "jupiter_tisserand_invariant" : "5.848",
        "epoch_osculation" : "2458000.5",
        "eccentricity" : ".06951616615745691",
        "semi_major_axis" : "1.043045837616673",
        "inclination" : "15.82960493241258",
        "ascending_node_longitude" : "334.1116256135565",
        "orbital_period" : "389.0930901969714",
        "perihelion_distance" : ".9705372898590687",
        "perihelion_argument" : "108.9296038878998",
        "aphelion_distance" : "1.115554385374278",
        "perihelion_time" : "2458129.040748778843",
        "mean_anomaly" : "241.0704411713974",
        "mean_motion" : ".925228458356216",
        "equinox" : "J2000"
      }
    } ]
  }
}